{
  "type": "FeatureCollection",
  "features": [
    {
      "type": "Feature",
      "properties": {
        "norad_id": 40010,
        "name": "KAZEOSAT 2",
        "group": "resource",
        "lat": 3.8728928772717532,
        "lon": -157.55600362989185,
        "alt_km": 621.1810845045102,
        "timestamp": "2025-12-25T07:00:33.699663+00:00",
        "meta_object_name": "KAZEOSAT 2",
        "meta_object_id": "2014-033A",
        "meta_epoch": "2025-12-24T22:54:25.256736",
        "meta_mean_motion": 14.85189482,
        "meta_eccentricity": 0.00086823,
        "meta_inclination": 97.5496,
        "meta_ra_of_asc_node": 202.6384,
        "meta_arg_of_pericenter": 164.3015,
        "meta_mean_anomaly": 195.8472,
        "meta_ephemeris_type": 0,
        "meta_classification_type": "U",
        "meta_norad_cat_id": 40010,
        "meta_element_set_no": 999,
        "meta_rev_at_epoch": 62309,
        "meta_bstar": 0.00013745115,
        "meta_mean_motion_dot": 1.128e-05,
        "meta_mean_motion_ddot": 0,
        "tle_line1": "1 40010U 14033A   25358.95445899  .00001128  00000+0  13745-3 0  9996",
        "tle_line2": "2 40010  97.5496 202.6384 0008682 164.3015 195.8472 14.85189482623092"
      },
      "geometry": {
        "type": "Point",
        "coordinates": [
          -157.55600362989185,
          3.8728928772717532
        ]
      }
    },
    {
      "type": "Feature",
      "properties": {
        "norad_id": 40011,
        "name": "HODOYOSHI-4",
        "group": "resource",
        "lat": -16.89246123441245,
        "lon": 5.251636935803365,
        "alt_km": 597.3647984189693,
        "timestamp": "2025-12-25T07:00:33.699673+00:00",
        "meta_object_name": "HODOYOSHI-4",
        "meta_object_id": "2014-033B",
        "meta_epoch": "2025-12-24T23:40:13.173312",
        "meta_mean_motion": 14.87524623,
        "meta_eccentricity": 0.00240913,
        "meta_inclination": 97.5411,
        "meta_ra_of_asc_node": 187.2666,
        "meta_arg_of_pericenter": 159.8188,
        "meta_mean_anomaly": 200.3987,
        "meta_ephemeris_type": 0,
        "meta_classification_type": "U",
        "meta_norad_cat_id": 40011,
        "meta_element_set_no": 999,
        "meta_rev_at_epoch": 62290,
        "meta_bstar": 0.000220547,
        "meta_mean_motion_dot": 1.959e-05,
        "meta_mean_motion_ddot": 0,
        "tle_line1": "1 40011U 14033B   25358.98626358  .00001959  00000+0  22055-3 0  9997",
        "tle_line2": "2 40011  97.5411 187.2666 0024091 159.8188 200.3987 14.87524623622907"
      },
      "geometry": {
        "type": "Point",
        "coordinates": [
          5.251636935803365,
          -16.89246123441245
        ]
      }
    },
    {
      "type": "Feature",
      "properties": {
        "norad_id": 40013,
        "name": "DEIMOS-2",
        "group": "resource",
        "lat": -61.15978074355872,
        "lon": 40.63623657060019,
        "alt_km": 596.3877524142599,
        "timestamp": "2025-12-25T07:00:33.699684+00:00",
        "meta_object_name": "DEIMOS-2",
        "meta_object_id": "2014-033D",
        "meta_epoch": "2025-12-24T21:53:10.459104",
        "meta_mean_motion": 14.93023497,
        "meta_eccentricity": 0.00013716,
        "meta_inclination": 97.6053,
        "meta_ra_of_asc_node": 234.3111,
        "meta_arg_of_pericenter": 106.5291,
        "meta_mean_anomaly": 253.6079,
        "meta_ephemeris_type": 0,
        "meta_classification_type": "U",
        "meta_norad_cat_id": 40013,
        "meta_element_set_no": 999,
        "meta_rev_at_epoch": 61171,
        "meta_bstar": 0.00022203111,
        "meta_mean_motion_dot": 2.255e-05,
        "meta_mean_motion_ddot": 0,
        "tle_line1": "1 40013U 14033D   25358.91192661  .00002255  00000+0  22203-3 0  9992",
        "tle_line2": "2 40013  97.6053 234.3111 0001371 106.5291 253.6079 14.93023497611711"
      },
      "geometry": {
        "type": "Point",
        "coordinates": [
          40.63623657060019,
          -61.15978074355872
        ]
      }
    },
    {
      "type": "Feature",
      "properties": {
        "norad_id": 40015,
        "name": "HODOYOSHI-3",
        "group": "resource",
        "lat": 1.47798537288598,
        "lon": 164.3839121012584,
        "alt_km": 637.7031161506357,
        "timestamp": "2025-12-25T07:00:33.699694+00:00",
        "meta_object_name": "HODOYOSHI-3",
        "meta_object_id": "2014-033F",
        "meta_epoch": "2025-12-24T21:17:55.130496",
        "meta_mean_motion": 14.84847165,
        "meta_eccentricity": 0.00325079,
        "meta_inclination": 97.6207,
        "meta_ra_of_asc_node": 164.1949,
        "meta_arg_of_pericenter": 206.6693,
        "meta_mean_anomaly": 153.2851,
        "meta_ephemeris_type": 0,
        "meta_classification_type": "U",
        "meta_norad_cat_id": 40015,
        "meta_element_set_no": 999,
        "meta_rev_at_epoch": 62175,
        "meta_bstar": 0.00020552408,
        "meta_mean_motion_dot": 1.71e-05,
        "meta_mean_motion_ddot": 0,
        "tle_line1": "1 40015U 14033F   25358.88744364  .00001710  00000+0  20552-3 0  9993",
        "tle_line2": "2 40015  97.6207 164.1949 0032507 206.6693 153.2851 14.84847165621750"
      },
      "geometry": {
        "type": "Point",
        "coordinates": [
          164.3839121012584,
          1.47798537288598
        ]
      }
    },
    {
      "type": "Feature",
      "properties": {
        "norad_id": 40053,
        "name": "SPOT 7",
        "group": "resource",
        "lat": 75.38967249261042,
        "lon": 28.01446827101136,
        "alt_km": 682.5067674935935,
        "timestamp": "2025-12-25T07:00:33.699704+00:00",
        "meta_object_name": "SPOT 7",
        "meta_object_id": "2014-034A",
        "meta_epoch": "2025-12-24T22:26:05.116416",
        "meta_mean_motion": 14.60747706,
        "meta_eccentricity": 0.00015468,
        "meta_inclination": 98.0886,
        "meta_ra_of_asc_node": 60.7283,
        "meta_arg_of_pericenter": 82.7453,
        "meta_mean_anomaly": 277.3924,
        "meta_ephemeris_type": 0,
        "meta_classification_type": "U",
        "meta_norad_cat_id": 40053,
        "meta_element_set_no": 999,
        "meta_rev_at_epoch": 61169,
        "meta_bstar": 7.1723674e-05,
        "meta_mean_motion_dot": 3.04e-06,
        "meta_mean_motion_ddot": 0,
        "tle_line1": "1 40053U 14034A   25358.93478144  .00000304  00000+0  71724-4 0  9998",
        "tle_line2": "2 40053  98.0886  60.7283 0001546  82.7453 277.3924 14.60747706611693"
      },
      "geometry": {
        "type": "Point",
        "coordinates": [
          28.01446827101136,
          75.38967249261042
        ]
      }
    },
    {
      "type": "Feature",
      "properties": {
        "norad_id": 40072,
        "name": "SKYSAT-B",
        "group": "resource",
        "lat": 45.487475297487514,
        "lon": 132.2674265524259,
        "alt_km": 597.7309962471609,
        "timestamp": "2025-12-25T07:00:33.699714+00:00",
        "meta_object_name": "SKYSAT-B",
        "meta_object_id": "2014-037D",
        "meta_epoch": "2025-12-24T14:15:52.515648",
        "meta_mean_motion": 14.8736794,
        "meta_eccentricity": 0.00068222,
        "meta_inclination": 98.3628,
        "meta_ra_of_asc_node": 302.9274,
        "meta_arg_of_pericenter": 117.0616,
        "meta_mean_anomaly": 243.1296,
        "meta_ephemeris_type": 0,
        "meta_classification_type": "U",
        "meta_norad_cat_id": 40072,
        "meta_element_set_no": 999,
        "meta_rev_at_epoch": 62000,
        "meta_bstar": 0.00019301045,
        "meta_mean_motion_dot": 1.684e-05,
        "meta_mean_motion_ddot": 0,
        "tle_line1": "1 40072U 14037D   25358.59435782  .00001684  00000+0  19301-3 0  9999",
        "tle_line2": "2 40072  98.3628 302.9274 0006822 117.0616 243.1296 14.87367940620002"
      },
      "geometry": {
        "type": "Point",
        "coordinates": [
          132.2674265524259,
          45.487475297487514
        ]
      }
    },
    {
      "type": "Feature",
      "properties": {
        "norad_id": 40115,
        "name": "WORLDVIEW-3 (WV-3)",
        "group": "resource",
        "lat": -78.23671466999663,
        "lon": 113.08436865558157,
        "alt_km": 623.1850443913809,
        "timestamp": "2025-12-25T07:00:33.699724+00:00",
        "meta_object_name": "WORLDVIEW-3 (WV-3)",
        "meta_object_id": "2014-048A",
        "meta_epoch": "2025-12-24T21:40:11.764416",
        "meta_mean_motion": 14.84674822,
        "meta_eccentricity": 0.00020325,
        "meta_inclination": 97.8764,
        "meta_ra_of_asc_node": 71.0345,
        "meta_arg_of_pericenter": 129.448,
        "meta_mean_anomaly": 230.6915,
        "meta_ephemeris_type": 0,
        "meta_classification_type": "U",
        "meta_norad_cat_id": 40115,
        "meta_element_set_no": 999,
        "meta_rev_at_epoch": 61604,
        "meta_bstar": 0.00013449526,
        "meta_mean_motion_dot": 1.085e-05,
        "meta_mean_motion_ddot": 0,
        "tle_line1": "1 40115U 14048A   25358.90291394  .00001085  00000+0  13450-3 0  9997",
        "tle_line2": "2 40115  97.8764  71.0345 0002032 129.4480 230.6915 14.84674822616048"
      },
      "geometry": {
        "type": "Point",
        "coordinates": [
          113.08436865558157,
          -78.23671466999663
        ]
      }
    }
  ]
}